SAR-LUPE 2              
1 31797U 07030A   26191.30250760  .00028563  00000+0  45145-3 0  9994
2 31797  98.1052 298.6667 0004414 220.7432 139.3489 15.53443171 60525
SAPPHIRE                
1 39088U 13009C   26191.30718076  .00000064  00000+0  37153-4 0  9994
2 39088  98.4271  10.2151 0011278 174.0698 186.0624 14.35246709699894
PRAETORIAN SDA_602      
1 65565U 25203A   26190.72358580  .00000059  00000+0  41979-4 0  9992
2 65565  81.3037 349.9005 0006916 130.1986 229.9777 13.83887708 41811
PRAETORIAN SDA_603      
1 65566U 25203B   26190.67986709  .00000153  00000+0  12682-3 0  9990
2 65566  81.3044 349.8629 0010593 128.7709 231.4395 13.83961324 41814
PRAETORIAN SDA_604      
1 65567U 25203C   26190.71379939  .00000057  00000+0  41258-4 0  9992
2 65567  81.3059 350.2786 0006403 133.9259 226.2427 13.83049851 41791
PRAETORIAN SDA_605      
1 65568U 25203D   26190.67408190  .00000054  00000+0  38271-4 0  9998
2 65568  81.3025 349.9594 0009187 126.4398 233.7606 13.83199817 41802
PRAETORIAN SDA_606      
1 65569U 25203E   26190.73159176  .00000057  00000+0  40920-4 0  9990
2 65569  81.3061 350.1421 0007026 128.6349 231.5438 13.83199865 41808
PRAETORIAN SDA_607      
1 65570U 25203F   26190.72415257  .00000193  00000+0  16381-3 0  9990
2 65570  81.3044 349.7758 0009801 128.5911 231.6125 13.83757866 41822
PRAETORIAN SDA_608      
1 65571U 25203G   26190.70691854  .00000058  00000+0  41677-4 0  9995
2 65571  81.3014 349.9569 0006901 132.9647 227.2090 13.83819113 41809
PRAETORIAN SDA_609      
1 65572U 25203H   26190.48860244  .00000132  00000+0  10784-3 0  9999
2 65572  81.3052 350.1383 0007773 128.3212 231.8645 13.84211357 41786
PRAETORIAN SDA_610      
1 65573U 25203J   26189.89209177  .00000045  00000+0  29958-4 0  9992
2 65573  81.3015 350.6711 0007648 134.1093 226.0694 13.83769338 41695
PRAETORIAN SDA_611      
1 65574U 25203K   26190.69570898  .00000385  00000+0  33945-3 0  9991
2 65574  81.3017 350.1095 0006429 136.4064 223.7602 13.83310970 41795
PRAETORIAN SDA_612      
1 65575U 25203L   26190.51275722  .00000153  00000+0  12466-3 0  9999
2 65575  81.3034 349.8099 0010172 128.8451 231.3616 13.85040500 41802
PRAETORIAN SDA_613      
1 65576U 25203M   26190.71130007  .00000051  00000+0  35966-4 0  9996
2 65576  81.3007 350.1087 0006631 127.4162 232.7599 13.82767287 41792
PRAETORIAN SDA_614      
1 65577U 25203N   26190.72291036  .00000039  00000+0  24425-4 0  9992
2 65577  81.3020 349.6977 0008092 126.0989 234.0919 13.84778316 41837
PRAETORIAN SDA_615      
1 65578U 25203P   26190.48853157  .00000126  00000+0  10159-3 0  9999
2 65578  81.3025 349.8934 0009938 127.4681 232.7381 13.84438180 41797
PRAETORIAN SDA_616      
1 65579U 25203Q   26190.69559398  .00000138  00000+0  11495-3 0  9990
2 65579  81.3065 350.2694 0006324 134.4038 225.7637 13.83269945 41797
PRAETORIAN SDA_617      
1 65580U 25203R   26190.71911959  .00000055  00000+0  39089-4 0  9998
2 65580  81.3045 350.0763 0008351 126.5508 233.6418 13.83151745 41803
PRAETORIAN SDA_618      
1 65581U 25203S   26190.67184630  .00000119  00000+0  96255-4 0  9991
2 65581  81.3027 349.6536 0010702 130.4634 229.7458 13.84225316 41822
PRAETORIAN SDA_619      
1 65582U 25203T   26190.71758300  .00000080  00000+0  61729-4 0  9993
2 65582  81.3050 349.9347 0009136 127.6660 232.5326 13.83805442 42446
PRAETORIAN SDA_620      
1 65583U 25203U   26191.18432427  .00000166  00000+0  14015-3 0  9995
2 65583  81.3037 349.5308 0008485 123.6191 236.5776 13.83207265 41874
PRAETORIAN SDA_621      
1 65584U 25203V   26190.71941219  .00000056  00000+0  39845-4 0  9995
2 65584  81.3027 349.8663 0008381 121.7631 238.4343 13.83803646 41814
PRAETORIAN SDA_601      
1 65585U 25203W   26190.70035739  .00000374  00000+0  33038-3 0  9996
2 65585  81.3044 350.2080 0006220 138.0329 222.1305 13.83168932 41795
VICTUS HAZE PUMA        
1 69646U 26142A   26191.31061230  .00002680  00000+0  12370-3 0  9992
2 69646  97.4474  88.6706 0025114 284.0959  75.7486 15.20826401  3181
